NORAD_CAT_ID,OBJECT_NAME,OBJECT_TYPE,EPOCH,MEAN_MOTION,ECCENTRICITY,INCLINATION,RA_OF_ASC_NODE,ARG_OF_PERICENTER,MEAN_ANOMALY,BSTAR,MEAN_MOTION_DOT,MEAN_MOTION_DDOT,TLE_LINE0,TLE_LINE1,TLE_LINE2,SEMIMAJOR_AXIS,PERIOD,APOGEE,PERIGEE,DECAYED
52350.0,STARLINK-3754,PAYLOAD,2023-06-07 01:06:07,15.08844219,0.0001175,53.218,38.1215,90.521,269.5917,8.1819e-05,1.015e-05,0.0,0 STARLINK-3754,1 52350U 22045V   23158.04591526  .00001015  00000-0  81819-4 0  9997,2 52350  53.2180  38.1215 0001175  90.5210 269.5917 15.08844219 63816,6917.867,95.437,540.545,538.92,0.0
52350.0,STARLINK-3754,PAYLOAD,2023-06-07 15:24:36,15.08835819,0.0001213,53.2176,35.4458,81.2088,278.9042,4.0745e-05,3.61e-06,0.0,0 STARLINK-3754,1 52350U 22045V   23158.64208347  .00000361  00000-0  40745-4 0  9995,2 52350  53.2176  35.4458 0001213  81.2088 278.9042 15.08835819 63902,6917.893,95.438,540.597,538.919,0.0
52350.0,STARLINK-3754,PAYLOAD,2023-06-07 21:46:08,15.08836667,0.000124,53.2178,34.2568,80.9308,279.1824,4.9103e-05,4.94e-06,0.0,0 STARLINK-3754,1 52350U 22045V   23158.90704331  .00000494  00000-0  49103-4 0  9992,2 52350  53.2178  34.2568 0001240  80.9308 279.1824 15.08836667 63941,6917.891,95.438,540.613,538.898,0.0
52350.0,STARLINK-3754,PAYLOAD,2023-06-07 23:21:31,15.08839543,0.0001229,53.2177,33.959,80.7912,279.3219,6.3769e-05,7.27e-06,0.0,0 STARLINK-3754,1 52350U 22045V   23158.97328119  .00000727  00000-0  63769-4 0  9998,2 52350  53.2177  33.9590 0001229  80.7912 279.3219 15.08839543 63954,6917.882,95.438,540.597,538.897,0.0
52350.0,STARLINK-3754,PAYLOAD,2023-06-09 00:47:41,15.08846049,0.0001136,53.2176,29.1996,95.0553,265.0569,4.4369e-05,4.18e-06,0.0,0 STARLINK-3754,1 52350U 22045V   23160.03311865  .00000418  00000-0  44369-4 0  9990,2 52350  53.2176  29.1996 0001136  95.0553 265.0569 15.08846049 64115,6917.862,95.437,540.513,538.941,0.0
52350.0,STARLINK-3754,PAYLOAD,2023-06-09 08:44:37,15.08842516,0.0001183,53.2182,27.711,94.9922,265.1205,2.0768e-05,4.3e-07,0.0,0 STARLINK-3754,1 52350U 22045V   23160.36432080  .00000043  00000-0  20768-4 0  9990,2 52350  53.2182  27.7110 0001183  94.9922 265.1205 15.08842516 64162,6917.873,95.437,540.556,538.919,0.0
52350.0,STARLINK-3754,PAYLOAD,2023-06-09 21:27:42,15.0884378,0.0001219,53.218,25.3323,110.8802,249.2321,1.0945e-05,-1.14e-06,0.0,0 STARLINK-3754,1 52350U 22045V   23160.89424059 -.00000114  00000-0  10945-4 0  9991,2 52350  53.2180  25.3323 0001219 110.8802 249.2321 15.08843780 64240,6917.869,95.437,540.577,538.891,0.0
52350.0,STARLINK-3754,PAYLOAD,2023-06-10 00:38:28,15.08847918,0.0001397,53.2178,24.7376,112.7858,247.3282,5.6376e-05,6.1e-06,0.0,0 STARLINK-3754,1 52350U 22045V   23161.02671644  .00000610  00000-0  56376-4 0  9999,2 52350  53.2178  24.7376 0001397 112.7858 247.3282 15.08847918 64261,6917.856,95.437,540.688,538.755,0.0
52350.0,STARLINK-3754,PAYLOAD,2023-06-10 16:32:20,15.08839891,0.000126,53.217,21.7664,90.059,270.0546,1.8583e-05,8e-08,0.0,0 STARLINK-3754,1 52350U 22045V   23161.68912383  .00000008  00000-0  18583-4 0  9998,2 52350  53.2170  21.7664 0001260  90.0590 270.0546 15.08839891 64368,6917.881,95.438,540.617,538.874,0.0
52350.0,STARLINK-3754,PAYLOAD,2023-06-10 21:18:29,15.08843192,0.0001425,53.2173,20.8744,96.6957,263.4197,8.9702e-05,1.14e-05,0.0,0 STARLINK-3754,1 52350U 22045V   23161.88783917  .00001140  00000-0  89702-4 0  9998,2 52350  53.2173  20.8744 0001425  96.6957 263.4197 15.08843192 64392,6917.871,95.437,540.721,538.75,0.0
52350.0,STARLINK-3754,PAYLOAD,2023-06-11 00:29:15,15.08839128,0.0001353,53.2177,20.2802,97.0177,263.0969,9.0358e-05,1.15e-05,0.0,0 STARLINK-3754,1 52350U 22045V   23162.02032145  .00001150  00000-0  90358-4 0  9995,2 52350  53.2177  20.2802 0001353  97.0177 263.0969 15.08839128 64414,6917.883,95.438,540.684,538.812,0.0
52350.0,STARLINK-3754,PAYLOAD,2023-06-11 21:09:17,15.08835863,0.0001122,53.2179,16.4164,86.719,273.393,3.5539e-05,2.78e-06,0.0,0 STARLINK-3754,1 52350U 22045V   23162.88144678  .00000278  00000-0  35539-4 0  9994,2 52350  53.2179  16.4164 0001122  86.7190 273.3930 15.08835863 64546,6917.893,95.438,540.534,538.982,0.0
52350.0,STARLINK-3754,PAYLOAD,2023-06-11 22:44:39,15.08843323,0.0001106,53.2171,16.1174,87.5765,272.5354,8.4967e-08,-2.86e-06,0.0,0 STARLINK-3754,1 52350U 22045V   23162.94768227 -.00000286  00000-0  84967-7 0  9995,2 52350  53.2171  16.1174 0001106  87.5765 272.5354 15.08843323 64557,6917.87,95.437,540.5,538.97,0.0
52350.0,STARLINK-3754,PAYLOAD,2023-06-12 06:41:35,15.08838769,0.0001198,53.217,14.6299,88.0436,272.0693,-8.7681e-06,-4.27e-06,0.0,0 STARLINK-3754,1 52350U 22045V   23163.27888553 -.00000427  00000-0 -87681-5 0  9999,2 52350  53.2170  14.6299 0001198  88.0436 272.0693 15.08838769 64604,6917.884,95.438,540.578,538.92,0.0
52350.0,STARLINK-3754,PAYLOAD,2023-06-12 21:00:03,15.08839502,0.0001056,53.2175,11.9545,91.9868,268.1245,4.055e-05,3.58e-06,0.0,0 STARLINK-3754,1 52350U 22045V   23163.87504520  .00000358  00000-0  40550-4 0  9998,2 52350  53.2175  11.9545 0001056  91.9868 268.1245 15.08839502 64692,6917.882,95.438,540.477,539.016,0.0
52350.0,STARLINK-3754,PAYLOAD,2023-06-13 00:10:49,15.08843414,0.000112,53.2175,11.3587,90.1377,269.9743,6.7104e-05,7.8e-06,0.0,0 STARLINK-3754,1 52350U 22045V   23164.00752206  .00000780  00000-0  67104-4 0  9993,2 52350  53.2175  11.3587 0001120  90.1377 269.9743 15.08843414 64712,6917.87,95.437,540.51,538.96,0.0
52350.0,STARLINK-3754,PAYLOAD,2023-06-13 16:04:42,15.08835175,0.0001124,53.2179,8.3848,83.8625,276.2495,1.0699e-05,-1.18e-06,0.0,0 STARLINK-3754,1 52350U 22045V   23164.66993058 -.00000118  00000-0  10699-4 0  9990,2 52350  53.2179   8.3848 0001124  83.8625 276.2495 15.08835175 64812,6917.895,95.438,540.538,538.983,0.0
52350.0,STARLINK-3754,PAYLOAD,2023-06-13 20:50:50,15.08842124,0.0001053,53.2171,7.494,98.8405,261.2706,5.8025e-05,6.36e-06,0.0,0 STARLINK-3754,1 52350U 22045V   23164.86864455  .00000636  00000-0  58025-4 0  9999,2 52350  53.2171   7.4940 0001053  98.8405 261.2706 15.08842124 64844,6917.874,95.437,540.467,539.01,0.0
52350.0,STARLINK-3754,PAYLOAD,2023-06-13 22:26:13,15.08844162,0.0001063,53.2172,7.1962,93.5779,266.5335,7.503e-05,9.07e-06,0.0,0 STARLINK-3754,1 52350U 22045V   23164.93488295  .00000907  00000-0  75030-4 0  9997,2 52350  53.2172   7.1962 0001063  93.5779 266.5335 15.08844162 64854,6917.868,95.437,540.468,538.997,0.0
52350.0,STARLINK-3754,PAYLOAD,2023-06-14 12:44:42,15.0883551,0.0001137,53.2168,4.5203,99.3372,260.7748,5.8911e-05,6.5e-06,0.0,0 STARLINK-3754,1 52350U 22045V   23165.53104987  .00000650  00000-0  58911-4 0  9991,2 52350  53.2168   4.5203 0001137  99.3372 260.7748 15.08835510 64944,6917.894,95.438,540.546,538.973,0.0
52350.0,STARLINK-3754,PAYLOAD,2023-06-14 14:20:06,15.0883214,0.0001092,53.2172,4.2223,99.7841,260.3274,3.8049e-05,3.18e-06,0.0,0 STARLINK-3754,1 52350U 22045V   23165.59729305  .00000318  00000-0  38049-4 0  9995,2 52350  53.2172   4.2223 0001092  99.7841 260.3274 15.08832140 64950,6917.904,95.438,540.525,539.014,0.0
52350.0,STARLINK-3754,PAYLOAD,2023-06-15 12:35:29,15.08837226,0.0001108,53.2175,0.0583,90.298,269.8139,9.1707e-05,1.172e-05,0.0,0 STARLINK-3754,1 52350U 22045V   23166.52465115  .00001172  00000-0  91707-4 0  9994,2 52350  53.2175   0.0583 0001108  90.2980 269.8139 15.08837226 65094,6917.889,95.438,540.52,538.987,0.0
52350.0,STARLINK-3754,PAYLOAD,2023-06-15 18:57:02,15.0884574,0.0001043,53.2178,358.8696,89.3209,270.7903,5.9476e-05,6.59e-06,0.0,0 STARLINK-3754,1 52350U 22045V   23166.78960651  .00000659  00000-0  59476-4 0  9993,2 52350  53.2178 358.8696 0001043  89.3209 270.7903 15.08845740 65132,6917.863,95.437,540.449,539.006,0.0
52350.0,STARLINK-3754,PAYLOAD,2023-06-16 06:04:43,15.08849606,0.000105,53.218,356.7873,89.5874,270.5238,4.4584e-05,4.22e-06,0.0,0 STARLINK-3754,1 52350U 22045V   23167.25328266  .00000422  00000-0  44584-4 0  9998,2 52350  53.2180 356.7873 0001050  89.5874 270.5238 15.08849606 65209,6917.851,95.437,540.442,538.99,0.0
52350.0,STARLINK-3754,PAYLOAD,2023-06-16 18:47:48,15.08849909,9.42e-05,53.2174,354.4076,97.6512,262.4587,0.00014132,1.963e-05,0.0,0 STARLINK-3754,1 52350U 22045V   23167.78319809  .00001963  00000-0  14132-3 0  9995,2 52350  53.2174 354.4076 0000942  97.6512 262.4587 15.08849909 65281,6917.85,95.437,540.367,539.063,0.0
52350.0,STARLINK-3754,PAYLOAD,2023-06-17 01:09:20,15.08859962,0.0001022,53.2174,353.2181,96.3761,263.7347,0.00023653,3.481e-05,0.0,0 STARLINK-3754,1 52350U 22045V   23168.04814922  .00003481  00000-0  23653-3 0  9996,2 52350  53.2174 353.2181 0001022  96.3761 263.7347 15.08859962 65320,6917.819,95.436,540.391,538.977,0.0
52350.0,STARLINK-3754,PAYLOAD,2023-06-17 05:55:31,15.08817568,9e-05,53.217,352.3274,81.737,278.3724,-0.00028702,-4.85e-05,0.0,0 STARLINK-3754,1 52350U 22045V   23168.24689664 -.00004850  00000-0 -28702-3 0  9994,2 52350  53.2170 352.3274 0000900  81.7370 278.3724 15.08817568 65357,6917.949,95.439,540.437,539.191,0.0
52350.0,STARLINK-3754,PAYLOAD,2023-06-17 12:17:04,15.08817968,8.18e-05,53.2171,351.138,77.7211,282.3873,-0.00026806,-4.549e-05,0.0,0 STARLINK-3754,1 52350U 22045V   23168.51185892 -.00004549  00000-0 -26806-3 0  9996,2 52350  53.2171 351.1380 0000818  77.7211 282.3873 15.08817968 65398,6917.948,95.439,540.379,539.247,0.0
52350.0,STARLINK-3754,PAYLOAD,2023-06-17 18:38:37,15.08823133,9.06e-05,53.2169,349.949,74.6921,285.4171,-0.00016631,-2.932e-05,0.0,0 STARLINK-3754,1 52350U 22045V   23168.77681920 -.00002932  00000-0 -16631-3 0  9996,2 52350  53.2169 349.9490 0000906  74.6921 285.4171 15.08823133 65435,6917.932,95.439,540.424,539.17,0.0
52350.0,STARLINK-3754,PAYLOAD,2023-06-18 18:29:23,15.08843904,0.0001021,53.2168,345.4879,73.9513,286.1592,0.00017579,2.511e-05,0.0,0 STARLINK-3754,1 52350U 22045V   23169.77041392  .00002511  00000-0  17579-3 0  9993,2 52350  53.2168 345.4879 0001021  73.9513 286.1592 15.08843904 65583,6917.868,95.437,540.44,539.027,0.0
